{
    "links": {
        "self": "http://www.neowsapp.com/rest/v1/neo/3600234?api_key=iIulBulltgU6a56xZRHN4H3l9WmuAYTsLGpBGhQ2"
    },
    "id": "3600234",
    "neo_reference_id": "3600234",
    "name": "(2012 DT60)",
    "designation": "2012 DT60",
    "nasa_jpl_url": "http://ssd.jpl.nasa.gov/sbdb.cgi?sstr=3600234",
    "absolute_magnitude_h": 22.1,
    "estimated_diameter": {
        "kilometers": {
            "estimated_diameter_min": 0.1010543415,
            "estimated_diameter_max": 0.2259643771
        },
        "meters": {
            "estimated_diameter_min": 101.054341542,
            "estimated_diameter_max": 225.9643771094
        },
        "miles": {
            "estimated_diameter_min": 0.0627922373,
            "estimated_diameter_max": 0.140407711
        },
        "feet": {
            "estimated_diameter_min": 331.5431259047,
            "estimated_diameter_max": 741.3529669956
        }
    },
    "is_potentially_hazardous_asteroid": false,
    "close_approach_data": [
        {
            "close_approach_date": "2007-07-23",
            "close_approach_date_full": "2007-Jul-23 15:34",
            "epoch_date_close_approach": 1185204840000,
            "relative_velocity": {
                "kilometers_per_second": "4.3783970909",
                "kilometers_per_hour": "15762.2295272354",
                "miles_per_hour": "9794.0364526313"
            },
            "miss_distance": {
                "astronomical": "0.2953243998",
                "lunar": "114.8811915222",
                "kilometers": "44179901.169108426",
                "miles": "27452117.6148752388"
            },
            "orbiting_body": "Earth"
        },
        {
            "close_approach_date": "2011-11-01",
            "close_approach_date_full": "2011-Nov-01 18:47",
            "epoch_date_close_approach": 1320173220000,
            "relative_velocity": {
                "kilometers_per_second": "4.577065324",
                "kilometers_per_hour": "16477.4351665351",
                "miles_per_hour": "10238.4374233396"
            },
            "miss_distance": {
                "astronomical": "0.1612903865",
                "lunar": "62.7419603485",
                "kilometers": "24128698.271876755",
                "miles": "14992877.877159019"
            },
            "orbiting_body": "Earth"
        },
        {
            "close_approach_date": "2012-01-15",
            "close_approach_date_full": "2012-Jan-15 15:59",
            "epoch_date_close_approach": 1326643140000,
            "relative_velocity": {
                "kilometers_per_second": "2.8476009223",
                "kilometers_per_hour": "10251.3633201715",
                "miles_per_hour": "6369.7985030255"
            },
            "miss_distance": {
                "astronomical": "0.1597092832",
                "lunar": "62.1269111648",
                "kilometers": "23892168.585946784",
                "miles": "14845905.1455382592"
            },
            "orbiting_body": "Earth"
        },
        {
            "close_approach_date": "2016-04-19",
            "close_approach_date_full": "2016-Apr-19 19:12",
            "epoch_date_close_approach": 1461093120000,
            "relative_velocity": {
                "kilometers_per_second": "5.4871894485",
                "kilometers_per_hour": "19753.8820145544",
                "miles_per_hour": "12274.2940773213"
            },
            "miss_distance": {
                "astronomical": "0.3103920709",
                "lunar": "120.7425155801",
                "kilometers": "46433992.671528983",
                "miles": "28852745.1265186454"
            },
            "orbiting_body": "Earth"
        },
        {
            "close_approach_date": "2024-10-20",
            "close_approach_date_full": "2024-Oct-20 15:17",
            "epoch_date_close_approach": 1729437420000,
            "relative_velocity": {
                "kilometers_per_second": "4.2034216042",
                "kilometers_per_hour": "15132.3177750912",
                "miles_per_hour": "9402.6337864171"
            },
            "miss_distance": {
                "astronomical": "0.1247713429",
                "lunar": "48.5360523881",
                "kilometers": "18665527.134879623",
                "miles": "11598220.7449718774"
            },
            "orbiting_body": "Earth"
        }
    ],
    "orbital_data": {
        "orbit_id": "8",
        "orbit_determination_date": "2017-04-06 08:50:42",
        "first_observation_date": "2012-02-29",
        "last_observation_date": "2012-03-27",
        "data_arc_in_days": 27,
        "observations_used": 36,
        "orbit_uncertainty": "6",
        "minimum_orbit_intersection": ".113799",
        "jupiter_tisserand_invariant": "5.309",
        "epoch_osculation": "2459000.5",
        "eccentricity": ".1125190507993448",
        "semi_major_axis": "1.191825370171689",
        "inclination": "7.483001569577023",
        "ascending_node_longitude": "353.859681939376",
        "orbital_period": "475.2447914014149",
        "perihelion_distance": "1.057722310801392",
        "perihelion_argument": "73.8347237297039",
        "aphelion_distance": "1.325928429541985",
        "perihelion_time": "2459218.224608856939",
        "mean_anomaly": "195.0726602234471",
        "mean_motion": ".757504356730396",
        "equinox": "J2000",
        "orbit_class": {
            "orbit_class_type": "AMO",
            "orbit_class_description": "Near-Earth asteroid orbits similar to that of 1221 Amor",
            "orbit_class_range": "1.017 AU < q (perihelion) < 1.3 AU"
        }
    },
    "is_sentry_object": false
}